start=new Date('2021-10-23T00:00:00.000Z').valueOf();
sats=[{"MEAN_ANOMALY":"3.9479","REF_FRAME":"TEME","COUNTRY_CODE":"US","GP_ID":"187934978","RCS_SIZE":"LARGE","NORAD_CAT_ID":"48691","ECCENTRICITY":"0.00011400","TIME_SYSTEM":"UTC","MEAN_ELEMENT_THEORY":"SGP4","ELEMENT_SET_NO":"999","REV_AT_EPOCH":"359","OBJECT_TYPE":"PAYLOAD","LAUNCH_DATE":"2021-05-26","INCLINATION":"53.0531","PERIOD":"95.592","ARG_OF_PERICENTER":"92.7682","TLE_LINE1":"1 48691U 21044BF  21296.00002315 -.00031595  00000-0 -21114-2 0  9996","TLE_LINE2":"2 48691  53.0531  53.4009 0001140  92.7682   3.9479 15.06404362  3598","PERIAPSIS":"546.411","DECAY_DATE":null,"CLASSIFICATION_TYPE":"U","CENTER_NAME":"EARTH","SITE":"AFETR","MEAN_MOTION_DDOT":"0.0000000000000","SEMIMAJOR_AXIS":"6925.335","EPHEMERIS_TYPE":"0","FILE":"3179071","BSTAR":"-0.00211140000000","MEAN_MOTION":"15.06404362","OBJECT_ID":"2021-044BF","RA_OF_ASC_NODE":"53.4009","MEAN_MOTION_DOT":"-0.00031595","EPOCH":"2021-10-23T00:00:02.000160","APOAPSIS":"547.990","OBJECT_NAME":"STARLINK-2750"},{"REV_AT_EPOCH":"359","PERIOD":"95.590","INCLINATION":"53.0545","LAUNCH_DATE":"2021-05-26","OBJECT_TYPE":"PAYLOAD","ARG_OF_PERICENTER":"59.1134","TLE_LINE2":"2 48692  53.0545  53.4043 0001479  59.1134 217.7268 15.06428907  3598","TLE_LINE1":"1 48692U 21044BG  21296.00002315 -.00078370  00000-0 -52965-2 0  9997","GP_ID":"187935642","RCS_SIZE":"LARGE","NORAD_CAT_ID":"48692","COUNTRY_CODE":"US","REF_FRAME":"TEME","MEAN_ANOMALY":"217.7268","ECCENTRICITY":"0.00014790","MEAN_ELEMENT_THEORY":"SGP4","TIME_SYSTEM":"UTC","ELEMENT_SET_NO":"999","OBJECT_ID":"2021-044BG","MEAN_MOTION":"15.06428907","FILE":"3179071","BSTAR":"-0.00529650000000","EPHEMERIS_TYPE":"0","RA_OF_ASC_NODE":"53.4043","OBJECT_NAME":"STARLINK-2752","APOAPSIS":"548.149","MEAN_MOTION_DOT":"-0.00078370","EPOCH":"2021-10-23T00:00:02.000160","CLASSIFICATION_TYPE":"U","DECAY_DATE":null,"PERIAPSIS":"546.101","CENTER_NAME":"EARTH","SITE":"AFETR","MEAN_MOTION_DDOT":"0.0000000000000","SEMIMAJOR_AXIS":"6925.260"},{"PERIAPSIS":"546.264","DECAY_DATE":null,"CLASSIFICATION_TYPE":"U","CENTER_NAME":"EARTH","SITE":"AFETR","SEMIMAJOR_AXIS":"6925.272","MEAN_MOTION_DDOT":"0.0000000000000","EPHEMERIS_TYPE":"0","FILE":"3179071","BSTAR":"-0.00219060000000","MEAN_MOTION":"15.06425026","OBJECT_ID":"2021-044BH","RA_OF_ASC_NODE":"58.3986","MEAN_MOTION_DOT":"-0.00032783","EPOCH":"2021-10-23T00:00:02.000160","APOAPSIS":"548.010","OBJECT_NAME":"STARLINK-2618","MEAN_ANOMALY":"88.6438","REF_FRAME":"TEME","COUNTRY_CODE":"US","NORAD_CAT_ID":"48693","GP_ID":"187935202","RCS_SIZE":"LARGE","ECCENTRICITY":"0.00012610","MEAN_ELEMENT_THEORY":"SGP4","TIME_SYSTEM":"UTC","ELEMENT_SET_NO":"999","REV_AT_EPOCH":"357","LAUNCH_DATE":"2021-05-26","OBJECT_TYPE":"PAYLOAD","INCLINATION":"53.0544","PERIOD":"95.591","ARG_OF_PERICENTER":"80.6677","TLE_LINE1":"1 48693U 21044BH  21296.00002315 -.00032783  00000-0 -21906-2 0  9997","TLE_LINE2":"2 48693  53.0544  58.3986 0001261  80.6677  88.6438 15.06425026  3579"},{"INCLINATION":"53.0524","PERIOD":"95.592","LAUNCH_DATE":"2021-05-26","OBJECT_TYPE":"PAYLOAD","REV_AT_EPOCH":"356","TLE_LINE2":"2 48694  53.0524  63.7885 0001277  85.6994 158.8018 15.06409886  3569","TLE_LINE1":"1 48694U 21044BJ  21295.91668981 -.00008137  00000-0 -52788-3 0  9993","ARG_OF_PERICENTER":"85.6994","ECCENTRICITY":"0.00012770","COUNTRY_CODE":"US","GP_ID":"187935089","RCS_SIZE":"LARGE","NORAD_CAT_ID":"48694","MEAN_ANOMALY":"158.8018","REF_FRAME":"TEME","MEAN_ELEMENT_THEORY":"SGP4","TIME_SYSTEM":"UTC","ELEMENT_SET_NO":"999","RA_OF_ASC_NODE":"63.7885","MEAN_MOTION":"15.06409886","FILE":"3179071","BSTAR":"-0.00052788000000","OBJECT_ID":"2021-044BJ","EPHEMERIS_TYPE":"0","OBJECT_NAME":"STARLINK-2748","APOAPSIS":"548.068","EPOCH":"2021-10-22T22:00:01.999584","MEAN_MOTION_DOT":"-0.00008137","SITE":"AFETR","CENTER_NAME":"EARTH","PERIAPSIS":"546.299","CLASSIFICATION_TYPE":"U","DECAY_DATE":null,"MEAN_MOTION_DDOT":"0.0000000000000","SEMIMAJOR_AXIS":"6925.318"},{"TLE_LINE2":"2 48695  53.0545  63.7763 0001159  67.9444  81.6927 15.06407717  3574","TLE_LINE1":"1 48695U 21044BK  21295.91668981  .00000235  00000-0  34666-4 0  9999","ARG_OF_PERICENTER":"67.9444","INCLINATION":"53.0545","PERIOD":"95.592","OBJECT_TYPE":"PAYLOAD","LAUNCH_DATE":"2021-05-26","REV_AT_EPOCH":"357","ELEMENT_SET_NO":"999","TIME_SYSTEM":"UTC","MEAN_ELEMENT_THEORY":"SGP4","ECCENTRICITY":"0.00011590","COUNTRY_CODE":"US","GP_ID":"187935313","RCS_SIZE":"LARGE","NORAD_CAT_ID":"48695","MEAN_ANOMALY":"81.6927","REF_FRAME":"TEME","OBJECT_NAME":"STARLINK-2616","APOAPSIS":"547.993","MEAN_MOTION_DOT":"0.00000235","EPOCH":"2021-10-22T22:00:01.999584","RA_OF_ASC_NODE":"63.7763","BSTAR":"0.00003466600000","FILE":"3179071","MEAN_MOTION":"15.06407717","OBJECT_ID":"2021-044BK","EPHEMERIS_TYPE":"0","SEMIMAJOR_AXIS":"6925.325","MEAN_MOTION_DDOT":"0.0000000000000","SITE":"AFETR","CENTER_NAME":"EARTH","PERIAPSIS":"546.387","DECAY_DATE":null,"CLASSIFICATION_TYPE":"U"},{"SEMIMAJOR_AXIS":"6925.390","MEAN_MOTION_DDOT":"0.0000000000000","CLASSIFICATION_TYPE":"U","DECAY_DATE":null,"PERIAPSIS":"546.146","CENTER_NAME":"EARTH","SITE":"AFETR","MEAN_MOTION_DOT":"-0.00000308","EPOCH":"2021-10-22T16:19:48.907488","APOAPSIS":"548.363","OBJECT_NAME":"STARLINK-2753","EPHEMERIS_TYPE":"0","OBJECT_ID":"2021-044BL","FILE":"3179071","BSTAR":"-0.00000179270000","MEAN_MOTION":"15.06386571","RA_OF_ASC_NODE":"69.7970","ELEMENT_SET_NO":"999","MEAN_ELEMENT_THEORY":"SGP4","TIME_SYSTEM":"UTC","REF_FRAME":"TEME","MEAN_ANOMALY":"278.4440","GP_ID":"187935536","RCS_SIZE":"LARGE","NORAD_CAT_ID":"48696","COUNTRY_CODE":"US","ECCENTRICITY":"0.00016010","ARG_OF_PERICENTER":"81.6731","TLE_LINE1":"1 48696U 21044BL  21295.68042717 -.00000308  00000-0 -17927-5 0  9992","TLE_LINE2":"2 48696  53.0671  69.7970 0001601  81.6731 278.4440 15.06386571 23128","REV_AT_EPOCH":"2312","OBJECT_TYPE":"PAYLOAD","LAUNCH_DATE":"2021-05-26","PERIOD":"95.593","INCLINATION":"53.0671"},{"LAUNCH_DATE":"2021-05-26","OBJECT_TYPE":"PAYLOAD","PERIOD":"95.593","INCLINATION":"53.0564","REV_AT_EPOCH":"2312","TLE_LINE1":"1 48697U 21044BM  21295.71359591 -.00001334  00000-0 -70694-4 0  9997","TLE_LINE2":"2 48697  53.0564  69.6908 0002024  96.9363 263.1856 15.06388402 23127","ARG_OF_PERICENTER":"96.9363","ECCENTRICITY":"0.00020240","REF_FRAME":"TEME","MEAN_ANOMALY":"263.1856","GP_ID":"187934868","NORAD_CAT_ID":"48697","RCS_SIZE":"LARGE","COUNTRY_CODE":"US","ELEMENT_SET_NO":"999","MEAN_ELEMENT_THEORY":"SGP4","TIME_SYSTEM":"UTC","RA_OF_ASC_NODE":"69.6908","EPHEMERIS_TYPE":"0","OBJECT_ID":"2021-044BM","FILE":"3179071","MEAN_MOTION":"15.06388402","BSTAR":"-0.00007069400000","EPOCH":"2021-10-22T17:07:34.686624","MEAN_MOTION_DOT":"-0.00001334","OBJECT_NAME":"STARLINK-2715","APOAPSIS":"548.651","CENTER_NAME":"EARTH","SITE":"AFETR","DECAY_DATE":null,"CLASSIFICATION_TYPE":"U","PERIAPSIS":"545.847","MEAN_MOTION_DDOT":"0.0000000000000","SEMIMAJOR_AXIS":"6925.384"},{"APOAPSIS":"523.732","OBJECT_NAME":"STARLINK-3003","EPOCH":"2021-10-22T22:00:01.999584","MEAN_MOTION_DOT":"-0.00013141","BSTAR":"-0.00068187000000","FILE":"3179071","MEAN_MOTION":"15.16000574","OBJECT_ID":"2021-059A","EPHEMERIS_TYPE":"0","RA_OF_ASC_NODE":"63.5790","SEMIMAJOR_AXIS":"6896.080","MEAN_MOTION_DDOT":"0.0000000000000","PERIAPSIS":"512.157","DECAY_DATE":null,"CLASSIFICATION_TYPE":"U","CENTER_NAME":"EARTH","SITE":"AFETR","ARG_OF_PERICENTER":"222.1675","TLE_LINE2":"2 48879  97.5226  63.5790 0008393 222.1675 142.0580 15.16000574  3582","TLE_LINE1":"1 48879U 21059A   21295.91668981 -.00013141  00000-0 -68187-3 0  9995","REV_AT_EPOCH":"358","INCLINATION":"97.5226","PERIOD":"94.987","LAUNCH_DATE":"2021-06-30","OBJECT_TYPE":"PAYLOAD","TIME_SYSTEM":"UTC","MEAN_ELEMENT_THEORY":"SGP4","ELEMENT_SET_NO":"999","COUNTRY_CODE":"US","GP_ID":"187934999","NORAD_CAT_ID":"48879","RCS_SIZE":"LARGE","MEAN_ANOMALY":"142.0580","REF_FRAME":"TEME","ECCENTRICITY":"0.00083930"},{"TLE_LINE1":"1 48880U 21059B   21295.91668981 -.00031998  00000-0 -16431-2 0  9991","TLE_LINE2":"2 48880  97.5243  63.5894 0009239 242.0986 152.6182 15.16556525  3581","ARG_OF_PERICENTER":"242.0986","LAUNCH_DATE":"2021-06-30","OBJECT_TYPE":"PAYLOAD","PERIOD":"94.952","INCLINATION":"97.5243","REV_AT_EPOCH":"358","TIME_SYSTEM":"UTC","ELEMENT_SET_NO":"999","MEAN_ELEMENT_THEORY":"SGP4","ECCENTRICITY":"0.00092390","REF_FRAME":"TEME","MEAN_ANOMALY":"152.6182","RCS_SIZE":"LARGE","GP_ID":"187935663","NORAD_CAT_ID":"48880","COUNTRY_CODE":"US","EPOCH":"2021-10-22T22:00:01.999584","MEAN_MOTION_DOT":"-0.00031998","APOAPSIS":"522.629","OBJECT_NAME":"STARLINK-3004","RA_OF_ASC_NODE":"63.5894","EPHEMERIS_TYPE":"0","OBJECT_ID":"2021-059B","FILE":"3179071","MEAN_MOTION":"15.16556525","BSTAR":"-0.00164310000000","SEMIMAJOR_AXIS":"6894.394","MEAN_MOTION_DDOT":"0.0000000000000","SITE":"AFETR","CENTER_NAME":"EARTH","CLASSIFICATION_TYPE":"U","DECAY_DATE":null,"PERIAPSIS":"509.889"},{"BSTAR":"-0.00571210000000","FILE":"3178791","MEAN_MOTION":"15.16054118","OBJECT_ID":"2021-059C","EPHEMERIS_TYPE":"0","RA_OF_ASC_NODE":"63.5933","APOAPSIS":"518.426","OBJECT_NAME":"STARLINK-3005","EPOCH":"2021-10-22T22:00:01.999584","MEAN_MOTION_DOT":"-0.00108235","PERIAPSIS":"517.138","DECAY_DATE":null,"CLASSIFICATION_TYPE":"U","SITE":"AFETR","CENTER_NAME":"EARTH","MEAN_MOTION_DDOT":"0.0000000000000","SEMIMAJOR_AXIS":"6895.917","REV_AT_EPOCH":"1853","INCLINATION":"97.5225","PERIOD":"94.983","OBJECT_TYPE":"PAYLOAD","LAUNCH_DATE":"2021-06-30","ARG_OF_PERICENTER":"244.1015","TLE_LINE2":"2 48881  97.5225  63.5933 0000934 244.1015 131.7430 15.16054118 18531","TLE_LINE1":"1 48881U 21059C   21295.91668981 -.00108235  00000-0 -57121-2 0  9992","COUNTRY_CODE":"US","NORAD_CAT_ID":"48881","GP_ID":"187906115","RCS_SIZE":"LARGE","MEAN_ANOMALY":"131.7430","REF_FRAME":"TEME","ECCENTRICITY":"0.00009340","TIME_SYSTEM":"UTC","MEAN_ELEMENT_THEORY":"SGP4","ELEMENT_SET_NO":"999"}];
